#aV2022  5  2  0  0  0.00000000     288 DD+AD WGS84 FIT  NGA
## 2208  86400.00000000   300.00000000 59701 0.0000000000000
+   32     1  2  3  4  5  6  7  8  9 10 11 12 13 14 15 16 17
+         18 19 20 21 22 23 24 25 26 27 28 29 30 31 32  0  0
+          0  0  0  0  0  0  0  0  0  0  0  0  0  0  0  0  0
+          0  0  0  0  0  0  0  0  0  0  0  0  0  0  0  0  0
+          0  0  0  0  0  0  0  0  0  0  0  0  0  0  0  0  0
++         2  2  2  2  2  2  2  2  2  2  2  2  2  2  2  2  2
++         2  2  2  2  2  2  2  2  2  2  2  2  2  2  2  0  0
++         0  0  0  0  0  0  0  0  0  0  0  0  0  0  0  0  0
++         0  0  0  0  0  0  0  0  0  0  0  0  0  0  0  0  0
++         0  0  0  0  0  0  0  0  0  0  0  0  0  0  0  0  0
%c cc cc ccc ccc cccc cccc cccc cccc ccccc ccccc ccccc ccccc
%c cc cc ccc ccc cccc cccc cccc cccc ccccc ccccc ccccc ccccc
%f  0.0000000  0.000000000  0.00000000000  0.000000000000000
%f  0.0000000  0.000000000  0.00000000000  0.000000000000000
%i    0    0    0    0      0      0      0      0         0
%i    0    0    0    0      0      0      0      0         0
/*      NGA, ST. LOUIS,MO.                                  
/*   EPHEMERIS COMPUTED FROM 2 DAYS OF DATA                 
/*   EPOCHA v7 SMOOTHER                                     
/*   G2139 IERS2010 SATIGS SATAPC                           
*  2022  5  2 23 20  0.00000000
P  1  11603.624951  13296.061703 -20257.185513    371.584587                    
V  1 -24887.900059    714.304482 -13649.322271     -0.084649                    
P  2  12055.121499 -14592.672231  19346.121753   -653.273025                    
V  2  23128.908638  -1154.094918 -15681.383169     -0.000275                    
P  3  12767.870575  23314.077079  -1608.896948   -229.880179                    
V  3  -2962.022375   -437.885738 -31870.479824     -0.145114                    
P  4   3794.577029  18723.458549  18425.301776   -170.804545                    
V  4 -13351.594466  19288.513342 -16942.915539      0.033873                    
P  5  -1765.119487 -21678.981230  14975.494344    -80.443131                    
V  5  12504.481784  14951.889155  23016.832339     -0.013682                    
P  6  24487.913058  -5982.383918   8562.909091    288.645214                    
V  6  10753.953275   1600.452333 -29777.432331      0.142281                    
P  7  24414.109563   6409.715165   9433.616511    321.562361                    
V  7 -11249.752460   2484.715112  28153.064482      0.006271                    
P  8  -3192.630472  23482.264053 -11664.439370    -66.386533                    
V  8  -9189.122676  11975.990137  27056.889302     -0.015059                    
P  9  12499.830853   9054.467105  21547.544411   -339.618120                    
V  9 -13098.996185  24230.026716  -2604.767945      0.027489                    
P 10 -17326.227148  -2424.432787 -19924.700862   -400.101317                    
V 10 -12456.066079 -22270.207209  13159.704558     -0.137476                    
P 11  13079.826779 -12874.349936  19189.817490    -30.299504                    
V 11  24308.376743   2209.939477 -15097.550942      0.056324                    
P 12  -8457.319338 -24722.306609  -5373.616199   -209.479932                    
V 12   5008.000180   4691.287219 -30901.997153     -0.058263                    
P 13  12384.384802 -22805.117445  -5362.543172    304.653523                    
V 13   6073.719289  -3761.420709  31057.011471      0.067029                    
P 14  17789.311142   3713.096326 -19402.782111   -106.288922                    
V 14  10731.029614  22205.653110  14005.002216     -0.021288                    
P 15   -518.345227 -23582.803611 -12306.357140    -64.298120                    
V 15   8598.933385 -12922.043504  25561.689018      0.029628                    
P 16  -4375.941461  18825.674707  17733.677535   -497.374668                    
V 16 -11777.905024 -20094.002424  18592.395221     -0.034892                    
P 17  18584.195157  -8356.464762 -16629.916759    607.844612                    
V 17 -10448.514923  19297.369479 -20788.838509      0.048522                    
P 18 -23980.862014  -6529.771147   9509.511089    180.355576                    
V 18  12040.892971  -2130.656203  28772.568634     -0.098630                    
P 19  19413.978078 -13766.631957 -11835.413613    152.212625                    
V 19  -6786.332823  13160.958158 -27234.481264      0.049948                    
P 20   6292.528731 -15686.053636  20539.232105    515.550031                    
V 20  17473.817262  19393.814107   9227.964382     -0.001823                    
P 21    661.417471  14914.184332 -21307.668927    160.874843                    
V 21 -28533.251787   2394.257037   1423.391932      0.002172                    
P 22 -18401.035049  16743.313730  -8624.963065    252.855838                    
V 22   4078.964930 -11201.473031 -29235.348453      0.060918                    
P 23 -19123.161773 -12809.396928 -13352.017145    -19.240689                    
V 23  -7452.773944 -15279.213790  25251.834287     -0.026320                    
P 24  -7692.944918 -14838.841500 -21007.648747    247.685499                    
V 24  25842.969241  -3118.734978  -6952.921873     -0.061426                    
P 25 -17386.394520 -18880.684989   7073.664573    319.720985                    
V 25  -2623.899872  -9299.082903 -29774.387325      0.048929                    
P 26 -12276.506162   9772.625451  21332.955944    202.915011                    
V 26 -15658.307095 -22478.194409   1587.622799      0.026726                    
P 27 -12283.569737  23296.888484   -734.519682    195.907627                    
V 27  -2775.670196   -747.091372  32253.834756      0.073086                    
P 28  13766.080361  -5506.841357 -21519.504758    364.147508                    
V 28  12198.116792  25807.435839   1393.941262     -0.055983                    
P 29 -10770.377459 -10330.083395  21914.586302   -509.526733                    
V 29  15513.703735 -23187.278534  -3358.849678     -0.040268                    
P 30  26699.968186    125.454717    209.999379   -526.337208                    
V 30   -167.413148   3368.731036  31038.762177     -0.015415                    
P 31 -23546.179487   7225.152102  10397.699159   -175.977169                    
V 31 -13233.441133  -2374.769331 -27512.361250     -0.016042                    
P 32 -18355.251840  10879.536109 -15549.128375   -118.355024                    
V 32   7661.085429 -18704.608355 -22111.130600     -0.084253                    
EOF
